start=new Date('2021-11-18T00:00:00.000Z').valueOf();
sats=[{"APOAPSIS":"548.398","BSTAR":"0.00014915000000","INCLINATION":"53.0559","GP_ID":"189977294","CLASSIFICATION_TYPE":"U","OBJECT_TYPE":"PAYLOAD","TIME_SYSTEM":"UTC","NORAD_CAT_ID":"48316","DECAY_DATE":null,"FILE":"3217982","RCS_SIZE":"LARGE","TLE_LINE2":"2 48316  53.0559 312.9690 0001725  67.8762 292.2410 15.06403306 31082","RA_OF_ASC_NODE":"312.9690","OBJECT_NAME":"STARLINK-2507","CENTER_NAME":"EARTH","MEAN_ANOMALY":"292.2410","EPOCH":"2021-11-17T17:15:06.808320","MEAN_MOTION_DOT":"0.00001941","REV_AT_EPOCH":"3108","MEAN_ELEMENT_THEORY":"SGP4","ECCENTRICITY":"0.00017250","TLE_LINE1":"1 48316U 21036AS  21321.71882880  .00001941  00000-0  14915-3 0  9993","ELEMENT_SET_NO":"999","MEAN_MOTION":"15.06403306","ARG_OF_PERICENTER":"67.8762","REF_FRAME":"TEME","OBJECT_ID":"2021-036AS","MEAN_MOTION_DDOT":"0.0000000000000","PERIAPSIS":"546.009","EPHEMERIS_TYPE":"0","SITE":"AFETR","COUNTRY_CODE":"US","SEMIMAJOR_AXIS":"6925.338","LAUNCH_DATE":"2021-04-29","PERIOD":"95.592"},{"TIME_SYSTEM":"UTC","NORAD_CAT_ID":"48317","DECAY_DATE":null,"FILE":"3217982","RCS_SIZE":"LARGE","TLE_LINE2":"2 48317  53.0554 312.9809 0001670  60.7495 299.3661 15.06405887 31086","RA_OF_ASC_NODE":"312.9809","OBJECT_NAME":"STARLINK-2513","APOAPSIS":"548.352","BSTAR":"0.00001537500000","GP_ID":"189976543","INCLINATION":"53.0554","CLASSIFICATION_TYPE":"U","OBJECT_TYPE":"PAYLOAD","REF_FRAME":"TEME","OBJECT_ID":"2021-036AT","MEAN_MOTION_DDOT":"0.0000000000000","PERIAPSIS":"546.039","EPHEMERIS_TYPE":"0","SITE":"AFETR","COUNTRY_CODE":"US","SEMIMAJOR_AXIS":"6925.331","LAUNCH_DATE":"2021-04-29","PERIOD":"95.592","CENTER_NAME":"EARTH","MEAN_ANOMALY":"299.3661","EPOCH":"2021-11-17T17:09:48.179808","MEAN_MOTION_DOT":"-0.00000053","REV_AT_EPOCH":"3108","MEAN_ELEMENT_THEORY":"SGP4","ECCENTRICITY":"0.00016700","ELEMENT_SET_NO":"999","TLE_LINE1":"1 48317U 21036AT  21321.71514097 -.00000053  00000-0  15375-4 0  9992","MEAN_MOTION":"15.06405887","ARG_OF_PERICENTER":"60.7495"},{"FILE":"3217982","RCS_SIZE":"LARGE","TLE_LINE2":"2 48318  53.0541 322.4092 0001560  59.4821 300.6322 15.06401263 30969","RA_OF_ASC_NODE":"322.4092","OBJECT_NAME":"STARLINK-2509","TIME_SYSTEM":"UTC","NORAD_CAT_ID":"48318","DECAY_DATE":null,"OBJECT_TYPE":"PAYLOAD","APOAPSIS":"548.290","BSTAR":"0.00009818700000","GP_ID":"189976793","INCLINATION":"53.0541","CLASSIFICATION_TYPE":"U","COUNTRY_CODE":"US","SITE":"AFETR","LAUNCH_DATE":"2021-04-29","PERIOD":"95.592","SEMIMAJOR_AXIS":"6925.345","REF_FRAME":"TEME","OBJECT_ID":"2021-036AU","MEAN_MOTION_DDOT":"0.0000000000000","PERIAPSIS":"546.129","EPHEMERIS_TYPE":"0","MEAN_ELEMENT_THEORY":"SGP4","ECCENTRICITY":"0.00015600","TLE_LINE1":"1 48318U 21036AU  21321.83954224  .00001181  00000-0  98187-4 0  9990","ELEMENT_SET_NO":"999","MEAN_MOTION":"15.06401263","ARG_OF_PERICENTER":"59.4821","CENTER_NAME":"EARTH","MEAN_ANOMALY":"300.6322","EPOCH":"2021-11-17T20:08:56.449536","MEAN_MOTION_DOT":"0.00001181","REV_AT_EPOCH":"3096"},{"ECCENTRICITY":"0.00017610","TLE_LINE1":"1 48319U 21036AV  21321.70317351  .00000307  00000-0  39545-4 0  9993","ELEMENT_SET_NO":"999","MEAN_ELEMENT_THEORY":"SGP4","ARG_OF_PERICENTER":"58.0881","MEAN_MOTION":"15.06393202","CENTER_NAME":"EARTH","MEAN_ANOMALY":"302.0279","REV_AT_EPOCH":"3094","MEAN_MOTION_DOT":"0.00000307","EPOCH":"2021-11-17T16:52:34.191264","SITE":"AFETR","COUNTRY_CODE":"US","LAUNCH_DATE":"2021-04-29","SEMIMAJOR_AXIS":"6925.369","PERIOD":"95.593","OBJECT_ID":"2021-036AV","REF_FRAME":"TEME","EPHEMERIS_TYPE":"0","MEAN_MOTION_DDOT":"0.0000000000000","PERIAPSIS":"546.015","OBJECT_TYPE":"PAYLOAD","APOAPSIS":"548.454","BSTAR":"0.00003954500000","CLASSIFICATION_TYPE":"U","GP_ID":"189977542","INCLINATION":"53.0542","FILE":"3217982","RA_OF_ASC_NODE":"323.0266","OBJECT_NAME":"STARLINK-2512","RCS_SIZE":"LARGE","TLE_LINE2":"2 48319  53.0542 323.0266 0001761  58.0881 302.0279 15.06393202 30943","TIME_SYSTEM":"UTC","NORAD_CAT_ID":"48319","DECAY_DATE":null},{"MEAN_MOTION":"15.06399689","ARG_OF_PERICENTER":"58.4476","MEAN_ELEMENT_THEORY":"SGP4","ECCENTRICITY":"0.00016260","TLE_LINE1":"1 48320U 21036AW  21321.69947674  .00001280  00000-0  10479-3 0  9995","ELEMENT_SET_NO":"999","EPOCH":"2021-11-17T16:47:14.790336","REV_AT_EPOCH":"3094","MEAN_MOTION_DOT":"0.00001280","CENTER_NAME":"EARTH","MEAN_ANOMALY":"301.6671","SITE":"AFETR","COUNTRY_CODE":"US","SEMIMAJOR_AXIS":"6925.350","LAUNCH_DATE":"2021-04-29","PERIOD":"95.592","MEAN_MOTION_DDOT":"0.0000000000000","PERIAPSIS":"546.088","EPHEMERIS_TYPE":"0","REF_FRAME":"TEME","OBJECT_ID":"2021-036AW","OBJECT_TYPE":"PAYLOAD","GP_ID":"189977795","INCLINATION":"53.0549","CLASSIFICATION_TYPE":"U","APOAPSIS":"548.341","BSTAR":"0.00010479000000","RCS_SIZE":"LARGE","TLE_LINE2":"2 48320  53.0549 323.0334 0001626  58.4476 301.6671 15.06399689 30948","RA_OF_ASC_NODE":"323.0334","OBJECT_NAME":"STARLINK-2029","FILE":"3217982","DECAY_DATE":null,"TIME_SYSTEM":"UTC","NORAD_CAT_ID":"48320"},{"MEAN_ANOMALY":"302.2793","CENTER_NAME":"EARTH","MEAN_MOTION_DOT":"0.00001308","REV_AT_EPOCH":"3088","EPOCH":"2021-11-17T07:08:42.294336","ELEMENT_SET_NO":"999","TLE_LINE1":"1 48321U 21036AX  21321.29771174  .00001308  00000-0  10671-3 0  9997","ECCENTRICITY":"0.00016940","MEAN_ELEMENT_THEORY":"SGP4","ARG_OF_PERICENTER":"57.8360","MEAN_MOTION":"15.06396392","OBJECT_ID":"2021-036AX","REF_FRAME":"TEME","EPHEMERIS_TYPE":"0","PERIAPSIS":"546.051","MEAN_MOTION_DDOT":"0.0000000000000","LAUNCH_DATE":"2021-04-29","SEMIMAJOR_AXIS":"6925.360","PERIOD":"95.592","COUNTRY_CODE":"US","SITE":"AFETR","BSTAR":"0.00010671000000","APOAPSIS":"548.398","CLASSIFICATION_TYPE":"U","INCLINATION":"53.0554","GP_ID":"189947462","OBJECT_TYPE":"PAYLOAD","NORAD_CAT_ID":"48321","TIME_SYSTEM":"UTC","DECAY_DATE":null,"FILE":"3217692","RA_OF_ASC_NODE":"324.8394","OBJECT_NAME":"STARLINK-2457","TLE_LINE2":"2 48321  53.0554 324.8394 0001694  57.8360 302.2793 15.06396392 30883","RCS_SIZE":"LARGE"},{"SEMIMAJOR_AXIS":"6925.346","LAUNCH_DATE":"2021-04-29","PERIOD":"95.592","COUNTRY_CODE":"US","SITE":"AFETR","OBJECT_ID":"2021-036AY","REF_FRAME":"TEME","EPHEMERIS_TYPE":"0","PERIAPSIS":"546.182","MEAN_MOTION_DDOT":"0.0000000000000","TLE_LINE1":"1 48322U 21036AY  21321.29402618  .00001861  00000-0  14381-3 0  9998","ELEMENT_SET_NO":"999","ECCENTRICITY":"0.00014860","MEAN_ELEMENT_THEORY":"SGP4","ARG_OF_PERICENTER":"65.8379","MEAN_MOTION":"15.06400820","MEAN_ANOMALY":"294.2765","CENTER_NAME":"EARTH","MEAN_MOTION_DOT":"0.00001861","REV_AT_EPOCH":"3088","EPOCH":"2021-11-17T07:03:23.861952","FILE":"3217692","OBJECT_NAME":"STARLINK-2477","RA_OF_ASC_NODE":"324.8530","TLE_LINE2":"2 48322  53.0554 324.8530 0001486  65.8379 294.2765 15.06400820 30885","RCS_SIZE":"LARGE","NORAD_CAT_ID":"48322","TIME_SYSTEM":"UTC","DECAY_DATE":null,"OBJECT_TYPE":"PAYLOAD","BSTAR":"0.00014381000000","APOAPSIS":"548.240","CLASSIFICATION_TYPE":"U","GP_ID":"189946210","INCLINATION":"53.0554"},{"OBJECT_ID":"2021-036AZ","REF_FRAME":"TEME","EPHEMERIS_TYPE":"0","PERIAPSIS":"546.132","MEAN_MOTION_DDOT":"0.0000000000000","LAUNCH_DATE":"2021-04-29","PERIOD":"95.592","SEMIMAJOR_AXIS":"6925.365","SITE":"AFETR","COUNTRY_CODE":"US","MEAN_ANOMALY":"291.1988","CENTER_NAME":"EARTH","MEAN_MOTION_DOT":"-0.00000339","REV_AT_EPOCH":"3091","EPOCH":"2021-11-17T11:44:42.749952","TLE_LINE1":"1 48323U 21036AZ  21321.48938368 -.00000339  00000-0 -38556-5 0  9999","ELEMENT_SET_NO":"999","ECCENTRICITY":"0.00015860","MEAN_ELEMENT_THEORY":"SGP4","ARG_OF_PERICENTER":"68.9171","MEAN_MOTION":"15.06394513","NORAD_CAT_ID":"48323","TIME_SYSTEM":"UTC","DECAY_DATE":null,"FILE":"3217982","OBJECT_NAME":"STARLINK-2515","RA_OF_ASC_NODE":"323.9885","TLE_LINE2":"2 48323  53.0565 323.9885 0001586  68.9171 291.1988 15.06394513 30914","RCS_SIZE":"LARGE","BSTAR":"-0.00000385560000","APOAPSIS":"548.329","CLASSIFICATION_TYPE":"U","GP_ID":"189977042","INCLINATION":"53.0565","OBJECT_TYPE":"PAYLOAD"},{"OBJECT_ID":"2021-036BA","REF_FRAME":"TEME","EPHEMERIS_TYPE":"0","PERIAPSIS":"546.049","MEAN_MOTION_DDOT":"0.0000000000000","PERIOD":"95.593","LAUNCH_DATE":"2021-04-29","SEMIMAJOR_AXIS":"6925.371","COUNTRY_CODE":"US","SITE":"AFETR","MEAN_ANOMALY":"300.2600","CENTER_NAME":"EARTH","MEAN_MOTION_DOT":"0.00000012","REV_AT_EPOCH":"3090","EPOCH":"2021-11-17T11:39:24.300288","ELEMENT_SET_NO":"999","TLE_LINE1":"1 48324U 21036BA  21321.48569792  .00000012  00000-0  19718-4 0  9995","ECCENTRICITY":"0.00017140","MEAN_ELEMENT_THEORY":"SGP4","ARG_OF_PERICENTER":"59.8559","MEAN_MOTION":"15.06392765","NORAD_CAT_ID":"48324","TIME_SYSTEM":"UTC","DECAY_DATE":null,"FILE":"3217982","RA_OF_ASC_NODE":"324.0157","OBJECT_NAME":"STARLINK-2527","TLE_LINE2":"2 48324  53.0556 324.0157 0001714  59.8559 300.2600 15.06392765 30900","RCS_SIZE":"LARGE","BSTAR":"0.00001971800000","APOAPSIS":"548.423","CLASSIFICATION_TYPE":"U","GP_ID":"189977295","INCLINATION":"53.0556","OBJECT_TYPE":"PAYLOAD"},{"EPHEMERIS_TYPE":"0","PERIAPSIS":"546.106","MEAN_MOTION_DDOT":"0.0000000000000","OBJECT_ID":"2021-036BB","REF_FRAME":"TEME","LAUNCH_DATE":"2021-04-29","PERIOD":"95.592","SEMIMAJOR_AXIS":"6925.354","SITE":"AFETR","COUNTRY_CODE":"US","REV_AT_EPOCH":"3091","MEAN_MOTION_DOT":"-0.00000474","EPOCH":"2021-11-17T11:34:06.112416","MEAN_ANOMALY":"297.8888","CENTER_NAME":"EARTH","ARG_OF_PERICENTER":"62.2264","MEAN_MOTION":"15.06398180","TLE_LINE1":"1 48325U 21036BB  21321.48201519 -.00000474  00000-0 -12903-4 0  9999","ELEMENT_SET_NO":"999","ECCENTRICITY":"0.00016070","MEAN_ELEMENT_THEORY":"SGP4","DECAY_DATE":null,"NORAD_CAT_ID":"48325","TIME_SYSTEM":"UTC","OBJECT_NAME":"STARLINK-2495","RA_OF_ASC_NODE":"324.0280","TLE_LINE2":"2 48325  53.0570 324.0280 0001607  62.2264 297.8888 15.06398180 30913","RCS_SIZE":"LARGE","FILE":"3217982","CLASSIFICATION_TYPE":"U","GP_ID":"189976544","INCLINATION":"53.0570","BSTAR":"-0.00001290300000","APOAPSIS":"548.332","OBJECT_TYPE":"PAYLOAD"}];
